{
    "links": {
        "self": "http://www.neowsapp.com/rest/v1/neo/3825234?api_key=iIulBulltgU6a56xZRHN4H3l9WmuAYTsLGpBGhQ2"
    },
    "id": "3825234",
    "neo_reference_id": "3825234",
    "name": "(2018 LR5)",
    "designation": "2018 LR5",
    "nasa_jpl_url": "http://ssd.jpl.nasa.gov/sbdb.cgi?sstr=3825234",
    "absolute_magnitude_h": 24.2,
    "estimated_diameter": {
        "kilometers": {
            "estimated_diameter_min": 0.0384197891,
            "estimated_diameter_max": 0.0859092601
        },
        "meters": {
            "estimated_diameter_min": 38.4197891064,
            "estimated_diameter_max": 85.9092601232
        },
        "miles": {
            "estimated_diameter_min": 0.0238729428,
            "estimated_diameter_max": 0.0533815229
        },
        "feet": {
            "estimated_diameter_min": 126.0491808919,
            "estimated_diameter_max": 281.8545369825
        }
    },
    "is_potentially_hazardous_asteroid": false,
    "close_approach_data": [
        {
            "close_approach_date": "2018-06-07",
            "close_approach_date_full": "2018-Jun-07 16:03",
            "epoch_date_close_approach": 1528387380000,
            "relative_velocity": {
                "kilometers_per_second": "8.7263918086",
                "kilometers_per_hour": "31415.0105109063",
                "miles_per_hour": "19520.0658366239"
            },
            "miss_distance": {
                "astronomical": "0.1159352862",
                "lunar": "45.0988263318",
                "kilometers": "17343671.873360394",
                "miles": "10776857.9725616772"
            },
            "orbiting_body": "Earth"
        }
    ],
    "orbital_data": {
        "orbit_id": "2",
        "orbit_determination_date": "2018-06-20 06:40:05",
        "first_observation_date": "2018-06-14",
        "last_observation_date": "2018-06-20",
        "data_arc_in_days": 6,
        "observations_used": 16,
        "orbit_uncertainty": "8",
        "minimum_orbit_intersection": ".102285",
        "jupiter_tisserand_invariant": "3.371",
        "epoch_osculation": "2458284.5",
        "eccentricity": ".5221856262948597",
        "semi_major_axis": "2.309859261747568",
        "inclination": "10.14638254372368",
        "ascending_node_longitude": "81.81405527585346",
        "orbital_period": "1282.261804848072",
        "perihelion_distance": "1.103683956498932",
        "perihelion_argument": "158.4941079565812",
        "aphelion_distance": "3.516034566996204",
        "perihelion_time": "2458264.451435384407",
        "mean_anomaly": "5.628712665639011",
        "mean_motion": ".2807538980252589",
        "equinox": "J2000",
        "orbit_class": {
            "orbit_class_type": "AMO",
            "orbit_class_description": "Near-Earth asteroid orbits similar to that of 1221 Amor",
            "orbit_class_range": "1.017 AU < q (perihelion) < 1.3 AU"
        }
    },
    "is_sentry_object": false
}